{"type": "FeatureCollection", "features": [{"type": "Feature", "properties": {"norad_id": 24876, "name": "GPS BIIR-2  (PRN 13)", "group": "gnss", "lat": 36.383130988007856, "lon": 136.1175848969632, "alt_km": 19926.20662688396, "timestamp": "2025-12-04T07:39:36.381863+00:00", "meta": {"OBJECT_NAME": "GPS BIIR-2  (PRN 13)", "OBJECT_ID": "1997-035A", "EPOCH": "2025-12-03T06:13:52.381920", "MEAN_MOTION": 2.00563443, "ECCENTRICITY": 0.00966798, "INCLINATION": 55.8906, "RA_OF_ASC_NODE": 106.2397, "ARG_OF_PERICENTER": 57.0195, "MEAN_ANOMALY": 303.8734, "EPHEMERIS_TYPE": 0, "CLASSIFICATION_TYPE": "U", "NORAD_CAT_ID": 24876, "ELEMENT_SET_NO": 999, "REV_AT_EPOCH": 20802, "BSTAR": 0, "MEAN_MOTION_DOT": 1.7e-07, "MEAN_MOTION_DDOT": 0}, "tle": {"line1": "1 24876U 97035A   25337.25963405  .00000017  00000+0  00000+0 0  9991", "line2": "2 24876  55.8906 106.2397 0096679  57.0195 303.8734  2.00563443208021"}}, "geometry": {"type": "Point", "coordinates": [136.1175848969632, 36.383130988007856]}}, {"type": "Feature", "properties": {"norad_id": 26360, "name": "GPS BIIR-4  (PRN 20)", "group": "gnss", "lat": 33.767072962096485, "lon": 179.33326938916397, "alt_km": 20201.94054619128, "timestamp": "2025-12-04T07:39:36.381910+00:00", "meta": {"OBJECT_NAME": "GPS BIIR-4  (PRN 20)", "OBJECT_ID": "2000-025A", "EPOCH": "2025-12-03T20:43:35.059008", "MEAN_MOTION": 2.0056828, "ECCENTRICITY": 0.00387989, "INCLINATION": 55.0399, "RA_OF_ASC_NODE": 27.1971, "ARG_OF_PERICENTER": 241.132, "MEAN_ANOMALY": 287.663, "EPHEMERIS_TYPE": 0, "CLASSIFICATION_TYPE": "U", "NORAD_CAT_ID": 26360, "ELEMENT_SET_NO": 999, "REV_AT_EPOCH": 18735, "BSTAR": 0, "MEAN_MOTION_DOT": -7.1e-07, "MEAN_MOTION_DDOT": 0}, "tle": {"line1": "1 26360U 00025A   25337.86360022 -.00000071  00000+0  00000+0 0  9998", "line2": "2 26360  55.0399  27.1971 0038798 241.1320 287.6630  2.00568280187352"}}, "geometry": {"type": "Point", "coordinates": [179.33326938916397, 33.767072962096485]}}, {"type": "Feature", "properties": {"norad_id": 26407, "name": "GPS BIIR-5  (PRN 22)", "group": "gnss", "lat": -17.7802075444538, "lon": -150.11293154358313, "alt_km": 19912.788995592426, "timestamp": "2025-12-04T07:39:36.381927+00:00", "meta": {"OBJECT_NAME": "GPS BIIR-5  (PRN 22)", "OBJECT_ID": "2000-040A", "EPOCH": "2025-12-03T20:42:39.159072", "MEAN_MOTION": 2.00567714, "ECCENTRICITY": 0.01264991, "INCLINATION": 54.893, "RA_OF_ASC_NODE": 222.9221, "ARG_OF_PERICENTER": 301.6438, "MEAN_ANOMALY": 66.2593, "EPHEMERIS_TYPE": 0, "CLASSIFICATION_TYPE": "U", "NORAD_CAT_ID": 26407, "ELEMENT_SET_NO": 999, "REV_AT_EPOCH": 18603, "BSTAR": 0, "MEAN_MOTION_DOT": 6e-07, "MEAN_MOTION_DDOT": 0}, "tle": {"line1": "1 26407U 00040A   25337.86295323  .00000060  00000+0  00000+0 0  9995", "line2": "2 26407  54.8930 222.9221 0126499 301.6438  66.2593  2.00567714186037"}}, "geometry": {"type": "Point", "coordinates": [-150.11293154358313, -17.7802075444538]}}, {"type": "Feature", "properties": {"norad_id": 27663, "name": "GPS BIIR-8  (PRN 16)", "group": "gnss", "lat": 48.11959527620179, "lon": -8.791087087807806, "alt_km": 19993.103516039748, "timestamp": "2025-12-04T07:39:36.381941+00:00", "meta": {"OBJECT_NAME": "GPS BIIR-8  (PRN 16)", "OBJECT_ID": "2003-005A", "EPOCH": "2025-12-02T11:09:18.319104", "MEAN_MOTION": 2.00571356, "ECCENTRICITY": 0.01470397, "INCLINATION": 54.9261, "RA_OF_ASC_NODE": 222.7871, "ARG_OF_PERICENTER": 51.656, "MEAN_ANOMALY": 162.4446, "EPHEMERIS_TYPE": 0, "CLASSIFICATION_TYPE": "U", "NORAD_CAT_ID": 27663, "ELEMENT_SET_NO": 999, "REV_AT_EPOCH": 16736, "BSTAR": 0, "MEAN_MOTION_DOT": 5.6e-07, "MEAN_MOTION_DDOT": 0}, "tle": {"line1": "1 27663U 03005A   25336.46479536  .00000056  00000+0  00000+0 0  9994", "line2": "2 27663  54.9261 222.7871 0147039  51.6560 162.4446  2.00571356167368"}}, "geometry": {"type": "Point", "coordinates": [-8.791087087807806, 48.11959527620179]}}, {"type": "Feature", "properties": {"norad_id": 28190, "name": "GPS BIIR-11 (PRN 19)", "group": "gnss", "lat": -54.86459463564056, "lon": -160.55984988506603, "alt_km": 20264.607122128313, "timestamp": "2025-12-04T07:39:36.381954+00:00", "meta": {"OBJECT_NAME": "GPS BIIR-11 (PRN 19)", "OBJECT_ID": "2004-009A", "EPOCH": "2025-12-03T10:35:53.866752", "MEAN_MOTION": 2.00560969, "ECCENTRICITY": 0.01082073, "INCLINATION": 54.9946, "RA_OF_ASC_NODE": 283.5937, "ARG_OF_PERICENTER": 167.4902, "MEAN_ANOMALY": 191.0311, "EPHEMERIS_TYPE": 0, "CLASSIFICATION_TYPE": "U", "NORAD_CAT_ID": 28190, "ELEMENT_SET_NO": 999, "REV_AT_EPOCH": 15901, "BSTAR": 0, "MEAN_MOTION_DOT": -4.4e-07, "MEAN_MOTION_DDOT": 0}, "tle": {"line1": "1 28190U 04009A   25337.44159568 -.00000044  00000+0  00000+0 0  9992", "line2": "2 28190  54.9946 283.5937 0108207 167.4902 191.0311  2.00560969159012"}}, "geometry": {"type": "Point", "coordinates": [-160.55984988506603, -54.86459463564056]}}, {"type": "Feature", "properties": {"norad_id": 28474, "name": "GPS BIIR-13 (PRN 02)", "group": "gnss", "lat": -22.03658095374072, "lon": -43.583926101653844, "alt_km": 19769.843200102783, "timestamp": "2025-12-04T07:39:36.381969+00:00", "meta": {"OBJECT_NAME": "GPS BIIR-13 (PRN 02)", "OBJECT_ID": "2004-045A", "EPOCH": "2025-12-02T14:51:16.748640", "MEAN_MOTION": 2.00568864, "ECCENTRICITY": 0.01705399, "INCLINATION": 55.2456, "RA_OF_ASC_NODE": 332.8132, "ARG_OF_PERICENTER": 308.8127, "MEAN_ANOMALY": 235.5488, "EPHEMERIS_TYPE": 0, "CLASSIFICATION_TYPE": "U", "NORAD_CAT_ID": 28474, "ELEMENT_SET_NO": 999, "REV_AT_EPOCH": 15448, "BSTAR": 0, "MEAN_MOTION_DOT": -6.2e-07, "MEAN_MOTION_DDOT": 0}, "tle": {"line1": "1 28474U 04045A   25336.61894385 -.00000062  00000+0  00000+0 0  9998", "line2": "2 28474  55.2456 332.8132 0170539 308.8127 235.5488  2.00568864154486"}}, "geometry": {"type": "Point", "coordinates": [-43.583926101653844, -22.03658095374072]}}, {"type": "Feature", "properties": {"norad_id": 28874, "name": "GPS BIIRM-1 (PRN 17)", "group": "gnss", "lat": -50.12505689328486, "lon": -135.75015385720204, "alt_km": 19836.297421800562, "timestamp": "2025-12-04T07:39:36.381982+00:00", "meta": {"OBJECT_NAME": "GPS BIIRM-1 (PRN 17)", "OBJECT_ID": "2005-038A", "EPOCH": "2025-12-02T16:12:27.400896", "MEAN_MOTION": 2.00548806, "ECCENTRICITY": 0.01328204, "INCLINATION": 55.0411, "RA_OF_ASC_NODE": 281.1063, "ARG_OF_PERICENTER": 293.4087, "MEAN_ANOMALY": 250.3584, "EPHEMERIS_TYPE": 0, "CLASSIFICATION_TYPE": "U", "NORAD_CAT_ID": 28874, "ELEMENT_SET_NO": 999, "REV_AT_EPOCH": 14789, "BSTAR": 0, "MEAN_MOTION_DOT": -4.3e-07, "MEAN_MOTION_DDOT": 0}, "tle": {"line1": "1 28874U 05038A   25336.67531714 -.00000043  00000+0  00000+0 0  9994", "line2": "2 28874  55.0411 281.1063 0132820 293.4087 250.3584  2.00548806147896"}}, "geometry": {"type": "Point", "coordinates": [-135.75015385720204, -50.12505689328486]}}, {"type": "Feature", "properties": {"norad_id": 28899, "name": "INMARSAT 4-F2 (SOUTHPAN/PRN 122)", "group": "gnss", "lat": -4.599187373758417, "lon": -28.122398515023292, "alt_km": 35784.125907289475, "timestamp": "2025-12-04T07:39:36.381995+00:00", "meta": {"OBJECT_NAME": "INMARSAT 4-F2 (SOUTHPAN/PRN 122)", "OBJECT_ID": "2005-044A", "EPOCH": "2025-12-03T14:26:13.285824", "MEAN_MOTION": 1.00270861, "ECCENTRICITY": 0.00034764, "INCLINATION": 4.8401, "RA_OF_ASC_NODE": 43.6613, "ARG_OF_PERICENTER": 209.4506, "MEAN_ANOMALY": 179.6299, "EPHEMERIS_TYPE": 0, "CLASSIFICATION_TYPE": "U", "NORAD_CAT_ID": 28899, "ELEMENT_SET_NO": 999, "REV_AT_EPOCH": 7356, "BSTAR": 0, "MEAN_MOTION_DOT": -2.46e-06, "MEAN_MOTION_DDOT": 0}, "tle": {"line1": "1 28899U 05044A   25337.60154266 -.00000246  00000+0  00000+0 0  9990", "line2": "2 28899   4.8401  43.6613 0003476 209.4506 179.6299  1.00270861 73563"}}, "geometry": {"type": "Point", "coordinates": [-28.122398515023292, -4.599187373758417]}}, {"type": "Feature", "properties": {"norad_id": 29486, "name": "GPS BIIRM-2 (PRN 31)", "group": "gnss", "lat": -12.367958895923568, "lon": -11.984560487933503, "alt_km": 20412.730634091058, "timestamp": "2025-12-04T07:39:36.382008+00:00", "meta": {"OBJECT_NAME": "GPS BIIRM-2 (PRN 31)", "OBJECT_ID": "2006-042A", "EPOCH": "2025-12-03T19:13:38.940960", "MEAN_MOTION": 2.00554392, "ECCENTRICITY": 0.01073584, "INCLINATION": 54.6928, "RA_OF_ASC_NODE": 159.0956, "ARG_OF_PERICENTER": 51.7428, "MEAN_ANOMALY": 128.6988, "EPHEMERIS_TYPE": 0, "CLASSIFICATION_TYPE": "U", "NORAD_CAT_ID": 29486, "ELEMENT_SET_NO": 999, "REV_AT_EPOCH": 14047, "BSTAR": 0, "MEAN_MOTION_DOT": 1e-06, "MEAN_MOTION_DDOT": 0}, "tle": {"line1": "1 29486U 06042A   25337.80114515  .00000100  00000+0  00000+0 0  9995", "line2": "2 29486  54.6928 159.0956 0107358  51.7428 128.6988  2.00554392140479"}}, "geometry": {"type": "Point", "coordinates": [-11.984560487933503, -12.367958895923568]}}, {"type": "Feature", "properties": {"norad_id": 29601, "name": "GPS BIIRM-3 (PRN 12)", "group": "gnss", "lat": -51.0692600977663, "lon": 101.88531298106007, "alt_km": 20410.623536175535, "timestamp": "2025-12-04T07:39:36.382020+00:00", "meta": {"OBJECT_NAME": "GPS BIIRM-3 (PRN 12)", "OBJECT_ID": "2006-052A", "EPOCH": "2025-12-03T11:22:11.769312", "MEAN_MOTION": 2.00572797, "ECCENTRICITY": 0.00875469, "INCLINATION": 54.9733, "RA_OF_ASC_NODE": 221.766, "ARG_OF_PERICENTER": 87.3435, "MEAN_ANOMALY": 273.7468, "EPHEMERIS_TYPE": 0, "CLASSIFICATION_TYPE": "U", "NORAD_CAT_ID": 29601, "ELEMENT_SET_NO": 999, "REV_AT_EPOCH": 13948, "BSTAR": 0, "MEAN_MOTION_DOT": 6.2e-07, "MEAN_MOTION_DDOT": 0}, "tle": {"line1": "1 29601U 06052A   25337.47374733  .00000062  00000+0  00000+0 0  9995", "line2": "2 29601  54.9733 221.7660 0087546  87.3435 273.7468  2.00572797139486"}}, "geometry": {"type": "Point", "coordinates": [101.88531298106007, -51.0692600977663]}}]}